NORAD_CAT_ID,OBJECT_NAME,OBJECT_TYPE,EPOCH,MEAN_MOTION,ECCENTRICITY,INCLINATION,RA_OF_ASC_NODE,ARG_OF_PERICENTER,MEAN_ANOMALY,BSTAR,MEAN_MOTION_DOT,MEAN_MOTION_DDOT,TLE_LINE0,TLE_LINE1,TLE_LINE2,SEMIMAJOR_AXIS,PERIOD,APOGEE,PERIGEE,DECAYED
52094.0,STARLINK-3714,PAYLOAD,2024-04-18 22:03:30,15.08847626,0.0001304,53.217,305.6207,60.313,299.7992,0.0001998,2.894e-05,0.0,0 STARLINK-3714,1 52094U 22029G   24109.91910213  .00002894  00000-0  19980-3 0  9990,2 52094  53.2170 305.6207 0001304  60.3130 299.7992 15.08847626116523,6917.857,95.437,540.624,538.82,0.0
52094.0,STARLINK-3714,PAYLOAD,2024-04-18 23:38:53,15.08848271,0.000136,53.2169,305.3237,58.6245,301.488,0.00018452,2.651e-05,0.0,0 STARLINK-3714,1 52094U 22029G   24109.98534134  .00002651  00000-0  18452-3 0  9995,2 52094  53.2169 305.3237 0001360  58.6245 301.4880 15.08848271116535,6917.855,95.437,540.661,538.779,0.0
52094.0,STARLINK-3714,PAYLOAD,2024-04-19 20:18:55,15.08827758,9.42e-05,53.2165,301.4655,75.7557,284.354,0.00036909,5.589e-05,0.0,0 STARLINK-3714,1 52094U 22029G   24110.84647267  .00005589  00000-0  36909-3 0  9994,2 52094  53.2165 301.4655 0000942  75.7557 284.3540 15.08827758116666,6917.918,95.438,540.434,539.131,0.0
52094.0,STARLINK-3714,PAYLOAD,2024-04-20 12:12:46,15.08838322,0.000122,53.2168,298.486,58.3181,301.793,2.0171e-05,3.3e-07,0.0,0 STARLINK-3714,1 52094U 22029G   24111.50887152  .00000033  00000-0  20171-4 0  9991,2 52094  53.2168 298.4860 0001220  58.3181 301.7930 15.08838322116769,6917.886,95.438,540.594,538.907,0.0
52094.0,STARLINK-3714,PAYLOAD,2024-04-20 20:09:41,15.08865179,9.59e-05,53.2168,296.9966,85.1766,274.9335,0.00053085,8.176e-05,0.0,0 STARLINK-3714,1 52094U 22029G   24111.84005958  .00008176  00000-0  53085-3 0  9999,2 52094  53.2168 296.9966 0000959  85.1766 274.9335 15.08865179116810,6917.803,95.436,540.332,539.005,0.0
52094.0,STARLINK-3714,PAYLOAD,2024-04-21 12:03:32,15.08843578,6.72e-05,53.2171,294.0259,93.5769,266.53,0.00011847,1.599e-05,0.0,0 STARLINK-3714,1 52094U 22029G   24112.50246294  .00001599  00000-0  11847-3 0  9995,2 52094  53.2171 294.0259 0000672  93.5769 266.5300 15.08843578116915,6917.869,95.437,540.199,539.27,0.0
52094.0,STARLINK-3714,PAYLOAD,2024-04-21 18:25:05,15.08845777,0.0001124,53.2171,292.8376,58.2828,301.8274,0.00023894,3.518e-05,0.0,0 STARLINK-3714,1 52094U 22029G   24112.76742551  .00003518  00000-0  23894-3 0  9998,2 52094  53.2171 292.8376 0001124  58.2828 301.8274 15.08845777116958,6917.863,95.437,540.505,538.95,0.0
52094.0,STARLINK-3714,PAYLOAD,2024-04-22 18:15:52,15.08842161,0.000105,53.2187,288.379,64.9762,295.1339,-6.4824e-05,-1.319e-05,0.0,0 STARLINK-3714,1 52094U 22029G   24113.76102681 -.00001319  00000-0 -64824-4 0  9991,2 52094  53.2187 288.3790 0001050  64.9762 295.1339 15.08842161117103,6917.874,95.437,540.465,539.012,0.0
52094.0,STARLINK-3714,PAYLOAD,2024-04-23 11:45:07,15.08830846,9.4e-05,53.2198,285.1089,64.8926,295.2163,0.00010308,1.353e-05,0.0,0 STARLINK-3714,1 52094U 22029G   24114.48967356  .00001353  00000-0  10308-3 0  9992,2 52094  53.2198 285.1089 0000940  64.8926 295.2163 15.08830846117214,6917.908,95.438,540.424,539.123,0.0
52094.0,STARLINK-3714,PAYLOAD,2024-04-23 14:55:53,15.08834453,9.62e-05,53.2197,284.5152,53.448,306.66,7.0828e-05,8.4e-06,0.0,0 STARLINK-3714,1 52094U 22029G   24114.62215248  .00000840  00000-0  70828-4 0  9998,2 52094  53.2197 284.5152 0000962  53.4480 306.6600 15.08834453117233,6917.897,95.438,540.428,539.097,0.0
52094.0,STARLINK-3714,PAYLOAD,2024-04-23 18:06:40,15.08839345,9.96e-05,53.2172,283.918,74.1085,286.0017,8.4177e-05,1.052e-05,0.0,0 STARLINK-3714,1 52094U 22029G   24114.75462990  .00001052  00000-0  84177-4 0  9998,2 52094  53.2172 283.9180 0000996  74.1085 286.0017 15.08839345117258,6917.882,95.438,540.436,539.058,0.0
52094.0,STARLINK-3714,PAYLOAD,2024-04-24 10:00:31,15.08846588,0.0001038,53.2167,280.9435,71.8215,288.289,7.0332e-05,8.32e-06,0.0,0 STARLINK-3714,1 52094U 22029G   24115.41702653  .00000832  00000-0  70332-4 0  9998,2 52094  53.2167 280.9435 0001038  71.8215 288.2890 15.08846588117350,6917.86,95.437,540.443,539.007,0.0
52094.0,STARLINK-3714,PAYLOAD,2024-04-24 16:22:02,15.08855573,7.71e-05,53.2174,279.7497,75.5995,284.5083,0.00019675,2.846e-05,0.0,0 STARLINK-3714,1 52094U 22029G   24115.68197627  .00002846  00000-0  19675-3 0  9995,2 52094  53.2174 279.7497 0000771  75.5995 284.5083 15.08855573117392,6917.833,95.437,540.231,539.164,0.0
52094.0,STARLINK-3714,PAYLOAD,2024-04-25 14:37:28,15.08837687,0.0001108,53.2169,275.5894,123.7653,236.3445,4.0088e-05,3.5e-06,0.0,0 STARLINK-3714,1 52094U 22029G   24116.60935230  .00000350  00000-0  40088-4 0  9999,2 52094  53.2169 275.5894 0001108 123.7653 236.3445 15.08837687117532,6917.887,95.438,540.519,538.986,0.0
52094.0,STARLINK-3714,PAYLOAD,2024-04-25 20:59:00,15.08845137,7.75e-05,53.2164,274.3969,95.1604,264.9477,9.6762e-05,1.253e-05,0.0,0 STARLINK-3714,1 52094U 22029G   24116.87430786  .00001253  00000-0  96762-4 0  9997,2 52094  53.2164 274.3969 0000775  95.1604 264.9477 15.08845137117579,6917.865,95.437,540.266,539.194,0.0
52094.0,STARLINK-3714,PAYLOAD,2024-04-26 14:28:15,15.08842813,8.17e-05,53.2172,271.1207,118.9805,241.1269,-0.00014423,-2.582e-05,0.0,0 STARLINK-3714,1 52094U 22029G   24117.60295359 -.00002582  00000-0 -14423-3 0  9995,2 52094  53.2172 271.1207 0000817 118.9805 241.1269 15.08842813117688,6917.872,95.437,540.302,539.172,0.0
52094.0,STARLINK-3714,PAYLOAD,2024-04-26 16:03:37,15.08853461,0.0001364,53.2184,270.8286,137.8397,222.27,3.4818e-05,2.66e-06,0.0,0 STARLINK-3714,1 52094U 22029G   24117.66918327  .00000266  00000-0  34818-4 0  9994,2 52094  53.2184 270.8286 0001364 137.8397 222.2700 15.08853461117690,6917.839,95.437,540.648,538.761,0.0
52094.0,STARLINK-3714,PAYLOAD,2024-04-27 03:11:19,15.08840964,0.0001294,53.2178,268.7469,123.9614,236.1501,0.00016396,2.323e-05,0.0,0 STARLINK-3714,1 52094U 22029G   24118.13287036  .00002323  00000-0  16396-3 0  9999,2 52094  53.2178 268.7469 0001294 123.9614 236.1501 15.08840964117767,6917.877,95.437,540.638,538.847,0.0
52094.0,STARLINK-3714,PAYLOAD,2024-04-27 14:19:01,15.08853071,9.33e-05,53.2166,266.6683,105.6262,254.4834,0.00015332,2.154e-05,0.0,0 STARLINK-3714,1 52094U 22029G   24118.59654257  .00002154  00000-0  15332-3 0  9993,2 52094  53.2166 266.6683 0000933 105.6262 254.4834 15.08853071117837,6917.84,95.437,540.351,539.06,0.0
52094.0,STARLINK-3714,PAYLOAD,2024-04-27 17:29:46,15.08864822,0.0001209,53.2188,266.0669,152.8346,207.271,0.00031833,4.785e-05,0.0,0 STARLINK-3714,1 52094U 22029G   24118.72900582  .00004785  00000-0  31833-3 0  9999,2 52094  53.2188 266.0669 0001209 152.8346 207.2710 15.08864822117850,6917.805,95.436,540.506,538.833,0.0
52094.0,STARLINK-3714,PAYLOAD,2024-04-28 03:02:07,15.08834024,0.0001022,53.2203,264.2827,86.4989,273.612,7.7114e-05,9.4e-06,0.0,0 STARLINK-3714,1 52094U 22029G   24119.12647483  .00000940  00000-0  77114-4 0  9994,2 52094  53.2203 264.2827 0001022  86.4989 273.6120 15.08834024117912,6917.899,95.438,540.471,539.057,0.0
52094.0,STARLINK-3714,PAYLOAD,2024-04-28 14:09:50,15.08829819,7.18e-05,53.2165,262.2084,117.0224,243.0842,-0.00018429,-3.218e-05,0.0,0 STARLINK-3714,1 52094U 22029G   24119.59016727 -.00003218  00000-0 -18429-3 0  9992,2 52094  53.2165 262.2084 0000718 117.0224 243.0842 15.08829819117981,6917.912,95.438,540.273,539.28,0.0
52094.0,STARLINK-3714,PAYLOAD,2024-04-28 15:45:13,15.08828895,5.9e-05,53.2156,261.9106,125.0354,235.0693,-0.00018759,-3.271e-05,0.0,0 STARLINK-3714,1 52094U 22029G   24119.65640768 -.00003271  00000-0 -18759-3 0  9992,2 52094  53.2156 261.9106 0000590 125.0354 235.0693 15.08828895117992,6917.914,95.438,540.187,539.371,0.0
52094.0,STARLINK-3714,PAYLOAD,2024-04-29 12:25:13,15.08844065,0.0001162,53.2173,258.0449,76.4025,283.7096,2.0971e-07,-2.84e-06,0.0,0 STARLINK-3714,1 52094U 22029G   24120.51751652 -.00000284  00000-0  20971-6 0  9996,2 52094  53.2173 258.0449 0001162  76.4025 283.7096 15.08844065118128,6917.868,95.437,540.537,538.929,0.0
52094.0,STARLINK-3714,PAYLOAD,2024-04-29 18:46:45,15.08852931,8.76e-05,53.2198,256.8536,92.6556,267.4537,-2.3363e-05,-6.6e-06,0.0,0 STARLINK-3714,1 52094U 22029G   24120.78247002 -.00000660  00000-0 -23363-4 0  9999,2 52094  53.2198 256.8536 0000876  92.6556 267.4537 15.08852931118162,6917.841,95.437,540.312,539.1,0.0
52094.0,STARLINK-3714,PAYLOAD,2024-04-30 12:16:01,15.08827858,8.95e-05,53.2159,253.5797,91.5125,268.597,0.00028802,4.298e-05,0.0,0 STARLINK-3714,1 52094U 22029G   24121.51112312  .00004298  00000-0  28802-3 0  9997,2 52094  53.2159 253.5797 0000895  91.5125 268.5970 15.08827858118278,6917.918,95.438,540.402,539.163,0.0
52094.0,STARLINK-3714,PAYLOAD,2024-04-30 13:51:24,15.08824914,7.22e-05,53.2177,253.2812,96.3912,263.7162,0.00032642,4.909e-05,0.0,0 STARLINK-3714,1 52094U 22029G   24121.57736392  .00004909  00000-0  32642-3 0  9999,2 52094  53.2177 253.2812 0000722  96.3912 263.7162 15.08824914118280,6917.927,95.439,540.291,539.292,0.0
52094.0,STARLINK-3714,PAYLOAD,2024-04-30 15:26:47,15.0883706,0.0001044,53.2177,252.9822,104.7127,255.3981,0.00013773,1.905e-05,0.0,0 STARLINK-3714,1 52094U 22029G   24121.64360065  .00001905  00000-0  13773-3 0  9994,2 52094  53.2177 252.9822 0001044 104.7127 255.3981 15.08837060118290,6917.889,95.438,540.477,539.032,0.0
52094.0,STARLINK-3714,PAYLOAD,2024-05-01 18:28:19,15.08846652,0.000102,53.218,247.9316,66.1462,293.9637,3.3483e-05,2.45e-06,0.0,0 STARLINK-3714,1 52094U 22029G   24122.76967572  .00000245  00000-0  33483-4 0  9991,2 52094  53.2180 247.9316 0001020  66.1462 293.9637 15.08846652118465,6917.86,95.437,540.431,539.019,0.0
52094.0,STARLINK-3714,PAYLOAD,2024-05-02 11:57:35,15.08834491,9.57e-05,53.2173,244.6615,80.7791,279.3309,-2.7496e-05,-7.25e-06,0.0,0 STARLINK-3714,1 52094U 22029G   24123.49832599 -.00000725  00000-0 -27496-4 0  9994,2 52094  53.2173 244.6615 0000957  80.7791 279.3309 15.08834491118572,6917.897,95.438,540.424,539.1,0.0
